[{"OBJECT_NAME":"CUTE-1 (CO-55)","OBJECT_ID":"2003-031E","EPOCH":"2026-03-03T14:13:05.995200","MEAN_MOTION":14.2426021,"ECCENTRICITY":0.0010485,"INCLINATION":98.6778,"RA_OF_ASC_NODE":72.4669,"ARG_OF_PERICENTER":128.3914,"MEAN_ANOMALY":231.8208,"EPHEMERIS_TYPE":0,"CLASSIFICATION_TYPE":"U","NORAD_CAT_ID":27844,"ELEMENT_SET_NO":999,"REV_AT_EPOCH":17664,"BSTAR":0.00021825,"MEAN_MOTION_DOT":4.6e-6,"MEAN_MOTION_DDOT":0},{"OBJECT_NAME":"CUBESAT XI-IV (CO-57)","OBJECT_ID":"2003-031J","EPOCH":"2026-03-03T10:59:29.555808","MEAN_MOTION":14.23556086,"ECCENTRICITY":0.00101181,"INCLINATION":98.6808,"RA_OF_ASC_NODE":72.1317,"ARG_OF_PERICENTER":145.3523,"MEAN_ANOMALY":214.8316,"EPHEMERIS_TYPE":0,"CLASSIFICATION_TYPE":"U","NORAD_CAT_ID":27848,"ELEMENT_SET_NO":999,"REV_AT_EPOCH":17633,"BSTAR":0.00018495315,"MEAN_MOTION_DOT":3.77e-6,"MEAN_MOTION_DDOT":0},{"OBJECT_NAME":"CUBESAT XI-V","OBJECT_ID":"2005-043F","EPOCH":"2026-03-03T09:29:25.679040","MEAN_MOTION":14.72285021,"ECCENTRICITY":0.00143794,"INCLINATION":98.2815,"RA_OF_ASC_NODE":215.9011,"ARG_OF_PERICENTER":177.156,"MEAN_ANOMALY":182.9731,"EPHEMERIS_TYPE":0,"CLASSIFICATION_TYPE":"U","NORAD_CAT_ID":28895,"ELEMENT_SET_NO":999,"REV_AT_EPOCH":8618,"BSTAR":0.00043695775,"MEAN_MOTION_DOT":2.713e-5,"MEAN_MOTION_DDOT":0},{"OBJECT_NAME":"CUTE-1.7+APD II (CO-65)","OBJECT_ID":"2008-021C","EPOCH":"2026-03-03T21:00:52.108704","MEAN_MOTION":15.08270933,"ECCENTRICITY":0.0010278,"INCLINATION":97.8198,"RA_OF_ASC_NODE":42.2431,"ARG_OF_PERICENTER":36.774,"MEAN_ANOMALY":323.4191,"EPHEMERIS_TYPE":0,"CLASSIFICATION_TYPE":"U","NORAD_CAT_ID":32785,"ELEMENT_SET_NO":999,"REV_AT_EPOCH":96931,"BSTAR":0.0006301,"MEAN_MOTION_DOT":9.717e-5,"MEAN_MOTION_DDOT":0},{"OBJECT_NAME":"CANX-2","OBJECT_ID":"2008-021H","EPOCH":"2026-03-03T17:20:12.768864","MEAN_MOTION":15.04717777,"ECCENTRICITY":0.0012203,"INCLINATION":97.8557,"RA_OF_ASC_NODE":40.5739,"ARG_OF_PERICENTER":48.5855,"MEAN_ANOMALY":311.6417,"EPHEMERIS_TYPE":0,"CLASSIFICATION_TYPE":"U","NORAD_CAT_ID":32790,"ELEMENT_SET_NO":999,"REV_AT_EPOCH":96894,"BSTAR":0.000482,"MEAN_MOTION_DOT":6.737e-5,"MEAN_MOTION_DDOT":0},{"OBJECT_NAME":"SEEDS II (CO-66)","OBJECT_ID":"2008-021J","EPOCH":"2026-03-03T12:10:28.642944","MEAN_MOTION":15.28751446,"ECCENTRICITY":0.00025637,"INCLINATION":97.7506,"RA_OF_ASC_NODE":55.6816,"ARG_OF_PERICENTER":18.3674,"MEAN_ANOMALY":341.7657,"EPHEMERIS_TYPE":0,"CLASSIFICATION_TYPE":"U","NORAD_CAT_ID":32791,"ELEMENT_SET_NO":999,"REV_AT_EPOCH":97112,"BSTAR":0.00086000582,"MEAN_MOTION_DOT":0.0002401,"MEAN_MOTION_DDOT":0},{"OBJECT_NAME":"SWISSCUBE","OBJECT_ID":"2009-051B","EPOCH":"2026-03-03T15:51:59.484960","MEAN_MOTION":14.62239489,"ECCENTRICITY":0.0006664,"INCLINATION":98.4105,"RA_OF_ASC_NODE":328.697,"ARG_OF_PERICENTER":170.6668,"MEAN_ANOMALY":189.4657,"EPHEMERIS_TYPE":0,"CLASSIFICATION_TYPE":"U","NORAD_CAT_ID":35932,"ELEMENT_SET_NO":999,"REV_AT_EPOCH":87373,"BSTAR":0.00033546,"MEAN_MOTION_DOT":1.642e-5,"MEAN_MOTION_DDOT":0},{"OBJECT_NAME":"BEESAT-1","OBJECT_ID":"2009-051C","EPOCH":"2026-03-03T16:26:51.471744","MEAN_MOTION":14.6151624,"ECCENTRICITY":0.0004889,"INCLINATION":98.4035,"RA_OF_ASC_NODE":328.5738,"ARG_OF_PERICENTER":181.8216,"MEAN_ANOMALY":178.2968,"EPHEMERIS_TYPE":0,"CLASSIFICATION_TYPE":"U","NORAD_CAT_ID":35933,"ELEMENT_SET_NO":999,"REV_AT_EPOCH":87377,"BSTAR":0.00028744,"MEAN_MOTION_DOT":1.377e-5,"MEAN_MOTION_DDOT":0},{"OBJECT_NAME":"ITUPSAT1","OBJECT_ID":"2009-051E","EPOCH":"2026-03-03T17:18:48.685248","MEAN_MOTION":14.60252771,"ECCENTRICITY":0.0006873,"INCLINATION":98.4123,"RA_OF_ASC_NODE":327.9111,"ARG_OF_PERICENTER":197.5625,"MEAN_ANOMALY":162.5338,"EPHEMERIS_TYPE":0,"CLASSIFICATION_TYPE":"U","NORAD_CAT_ID":35935,"ELEMENT_SET_NO":999,"REV_AT_EPOCH":87334,"BSTAR":0.00027434,"MEAN_MOTION_DOT":1.275e-5,"MEAN_MOTION_DDOT":0},{"OBJECT_NAME":"TISAT 1","OBJECT_ID":"2010-035E","EPOCH":"2026-03-03T17:31:23.377152","MEAN_MOTION":15.27276602,"ECCENTRICITY":3.14e-5,"INCLINATION":98.0649,"RA_OF_ASC_NODE":0.3379,"ARG_OF_PERICENTER":164.8855,"MEAN_ANOMALY":195.2392,"EPHEMERIS_TYPE":0,"CLASSIFICATION_TYPE":"U","NORAD_CAT_ID":36799,"ELEMENT_SET_NO":999,"REV_AT_EPOCH":85158,"BSTAR":0.0011314,"MEAN_MOTION_DOT":0.00030246,"MEAN_MOTION_DDOT":0},{"OBJECT_NAME":"AEROCUBE 4.5A","OBJECT_ID":"2012-048K","EPOCH":"2026-03-03T09:10:58.685952","MEAN_MOTION":15.60653463,"ECCENTRICITY":0.00418843,"INCLINATION":64.6378,"RA_OF_ASC_NODE":41.9953,"ARG_OF_PERICENTER":214.1084,"MEAN_ANOMALY":145.737,"EPHEMERIS_TYPE":0,"CLASSIFICATION_TYPE":"U","NORAD_CAT_ID":38767,"ELEMENT_SET_NO":999,"REV_AT_EPOCH":35600,"BSTAR":0.0010535389,"MEAN_MOTION_DOT":0.00092486,"MEAN_MOTION_DDOT":0},{"OBJECT_NAME":"STRAND-1","OBJECT_ID":"2013-009E","EPOCH":"2026-03-03T10:29:46.116384","MEAN_MOTION":14.37088223,"ECCENTRICITY":0.00086559,"INCLINATION":98.3881,"RA_OF_ASC_NODE":245.2845,"ARG_OF_PERICENTER":180.0154,"MEAN_ANOMALY":180.1035,"EPHEMERIS_TYPE":0,"CLASSIFICATION_TYPE":"U","NORAD_CAT_ID":39090,"ELEMENT_SET_NO":999,"REV_AT_EPOCH":68187,"BSTAR":0.00017733315,"MEAN_MOTION_DOT":4.84e-6,"MEAN_MOTION_DDOT":0},{"OBJECT_NAME":"BRITE-AUSTRIA","OBJECT_ID":"2013-009F","EPOCH":"2026-03-03T11:24:00.263520","MEAN_MOTION":14.36491679,"ECCENTRICITY":0.00099823,"INCLINATION":98.3949,"RA_OF_ASC_NODE":244.5381,"ARG_OF_PERICENTER":189.655,"MEAN_ANOMALY":170.4446,"EPHEMERIS_TYPE":0,"CLASSIFICATION_TYPE":"U","NORAD_CAT_ID":39091,"ELEMENT_SET_NO":999,"REV_AT_EPOCH":68187,"BSTAR":0.00011935017,"MEAN_MOTION_DOT":3.08e-6,"MEAN_MOTION_DDOT":0},{"OBJECT_NAME":"NEE-01 PEGASO","OBJECT_ID":"2013-018B","EPOCH":"2026-03-03T08:00:16.432128","MEAN_MOTION":14.93030021,"ECCENTRICITY":0.00135693,"INCLINATION":98.1035,"RA_OF_ASC_NODE":203.1334,"ARG_OF_PERICENTER":148.9733,"MEAN_ANOMALY":211.229,"EPHEMERIS_TYPE":0,"CLASSIFICATION_TYPE":"U","NORAD_CAT_ID":39151,"ELEMENT_SET_NO":999,"REV_AT_EPOCH":69490,"BSTAR":0.00051470375,"MEAN_MOTION_DOT":5.304e-5,"MEAN_MOTION_DDOT":0},{"OBJECT_NAME":"POPACS 2","OBJECT_ID":"2013-055E","EPOCH":"2026-03-03T12:33:00.766656","MEAN_MOTION":14.87421156,"ECCENTRICITY":0.04319263,"INCLINATION":80.989,"RA_OF_ASC_NODE":264.8559,"ARG_OF_PERICENTER":172.5313,"MEAN_ANOMALY":188.2631,"EPHEMERIS_TYPE":0,"CLASSIFICATION_TYPE":"U","NORAD_CAT_ID":39269,"ELEMENT_SET_NO":999,"REV_AT_EPOCH":64748,"BSTAR":0.000491155,"MEAN_MOTION_DOT":0.00028066,"MEAN_MOTION_DDOT":0},{"OBJECT_NAME":"POPACS 3","OBJECT_ID":"2013-055F","EPOCH":"2026-03-03T18:16:55.987104","MEAN_MOTION":14.53745697,"ECCENTRICITY":0.0561427,"INCLINATION":81.0063,"RA_OF_ASC_NODE":343.3222,"ARG_OF_PERICENTER":30.7059,"MEAN_ANOMALY":332.5744,"EPHEMERIS_TYPE":0,"CLASSIFICATION_TYPE":"U","NORAD_CAT_ID":39270,"ELEMENT_SET_NO":999,"REV_AT_EPOCH":62322,"BSTAR":0.0004583,"MEAN_MOTION_DOT":0.00019038,"MEAN_MOTION_DDOT":0}]
